ONEWEB-0687             
1 61595U 24188B   25206.17370136 -.00001508  00000+0 -39161-2 0  9999
2 61595  87.9044  71.0048 0001144  85.6248 274.5014 13.17661338 41123
ONEWEB-0688             
1 61596U 24188C   25205.67082552  .00000081  00000+0  17605-3 0  9999
2 61596  87.9036  71.1056 0001623 127.8453 232.2826 13.17652195 42768
ONEWEB-0689             
1 61597U 24188D   25205.72503815  .00000442  00000+0  12125-2 0  9998
2 61597  87.8782  86.3425 0001466  72.1228 288.0060 13.11418287 39661
ONEWEB-0690             
1 61598U 24188E   25205.65891855  .00000591  00000+0  16325-2 0  9996
2 61598  87.8826  86.3149 0002558  81.9473 278.1945 13.11418540 41709
ONEWEB-0691             
1 61599U 24188F   25206.18791073  .00000538  00000+0  14817-2 0  9992
2 61599  87.8738  86.2056 0001730  93.9195 266.2131 13.11418860 39902
ONEWEB-0692             
1 61600U 24188G   25205.67417965  .00000152  00000+0  39410-3 0  9992
2 61600  87.8811  86.3852 0001968  49.8199 310.3101 13.11415302 41548
ONEWEB-0693             
1 61601U 24188H   25206.13826322  .00003026  00000+0  77585-2 0  9993
2 61601  87.9041  71.0291 0002675  85.6767 274.4670 13.17632839 41046
ONEWEB-0695             
1 61602U 24188J   25205.72673072  .00000397  00000+0  10855-2 0  9995
2 61602  87.8813  86.3601 0001495  61.8532 298.2747 13.11419813 41545
